{
    "links": {
        "self": "http://www.neowsapp.com/rest/v1/neo/3734469?api_key=iIulBulltgU6a56xZRHN4H3l9WmuAYTsLGpBGhQ2"
    },
    "id": "3734469",
    "neo_reference_id": "3734469",
    "name": "(2015 VB105)",
    "designation": "2015 VB105",
    "nasa_jpl_url": "http://ssd.jpl.nasa.gov/sbdb.cgi?sstr=3734469",
    "absolute_magnitude_h": 23.2,
    "estimated_diameter": {
        "kilometers": {
            "estimated_diameter_min": 0.0608912622,
            "estimated_diameter_max": 0.1361570015
        },
        "meters": {
            "estimated_diameter_min": 60.8912622106,
            "estimated_diameter_max": 136.1570015386
        },
        "miles": {
            "estimated_diameter_min": 0.0378360645,
            "estimated_diameter_max": 0.0846040122
        },
        "feet": {
            "estimated_diameter_min": 199.7744887109,
            "estimated_diameter_max": 446.7093369279
        }
    },
    "is_potentially_hazardous_asteroid": false,
    "close_approach_data": [
        {
            "close_approach_date": "2015-11-06",
            "close_approach_date_full": "2015-Nov-06 04:58",
            "epoch_date_close_approach": 1446785880000,
            "relative_velocity": {
                "kilometers_per_second": "1.1233871538",
                "kilometers_per_hour": "4044.1937538214",
                "miles_per_hour": "2512.9047244231"
            },
            "miss_distance": {
                "astronomical": "0.2252436935",
                "lunar": "87.6197967715",
                "kilometers": "33695976.778532845",
                "miles": "20937709.075709461"
            },
            "orbiting_body": "Earth"
        }
    ],
    "orbital_data": {
        "orbit_id": "9",
        "orbit_determination_date": "2017-04-06 08:30:44",
        "first_observation_date": "2015-11-09",
        "last_observation_date": "2015-12-11",
        "data_arc_in_days": 32,
        "observations_used": 32,
        "orbit_uncertainty": "7",
        "minimum_orbit_intersection": ".219523",
        "jupiter_tisserand_invariant": "4.255",
        "epoch_osculation": "2459000.5",
        "eccentricity": ".2712864359262376",
        "semi_major_axis": "1.63655854860756",
        "inclination": "4.879606627658209",
        "ascending_node_longitude": "293.6841002589586",
        "orbital_period": "764.7082003456944",
        "perihelion_distance": "1.192582412771199",
        "perihelion_argument": "103.3924266886418",
        "aphelion_distance": "2.080534684443922",
        "perihelion_time": "2458852.466785948017",
        "mean_anomaly": "69.68927106394669",
        "mean_motion": ".4707678037678401",
        "equinox": "J2000",
        "orbit_class": {
            "orbit_class_type": "AMO",
            "orbit_class_description": "Near-Earth asteroid orbits similar to that of 1221 Amor",
            "orbit_class_range": "1.017 AU < q (perihelion) < 1.3 AU"
        }
    },
    "is_sentry_object": false
}